NORAD_CAT_ID,OBJECT_NAME,OBJECT_TYPE,EPOCH,MEAN_MOTION,ECCENTRICITY,INCLINATION,RA_OF_ASC_NODE,ARG_OF_PERICENTER,MEAN_ANOMALY,BSTAR,MEAN_MOTION_DOT,MEAN_MOTION_DDOT,TLE_LINE0,TLE_LINE1,TLE_LINE2,SEMIMAJOR_AXIS,PERIOD,APOGEE,PERIGEE,DECAYED
53535.0,STARLINK-4138,PAYLOAD,2024-04-17 12:18:34,15.08839795,0.0001243,53.216,296.9344,86.4018,273.7117,0.00072567,0.0001128,0.0,0 STARLINK-4138,1 53535U 22101J   24108.51289556  .00011280  00000-0  72567-3 0  9995,2 53535  53.2160 296.9344 0001243  86.4018 273.7117 15.08839795 91827,6917.881,95.438,540.606,538.886,0.0
53535.0,STARLINK-4138,PAYLOAD,2024-04-17 20:15:29,15.08864718,0.0001127,53.2153,295.4487,88.126,271.9861,0.0015157,0.00023933,0.0,0 STARLINK-4138,1 53535U 22101J   24108.84409153  .00023933  00000-0  15157-2 0  9997,2 53535  53.2153 295.4487 0001127  88.1260 271.9861 15.08864718 91874,6917.805,95.436,540.449,538.89,0.0
53535.0,STARLINK-4138,PAYLOAD,2024-04-18 12:09:20,15.08864465,0.0001324,53.2151,292.474,113.0606,247.0526,0.0011654,0.0001832,0.0,0 STARLINK-4138,1 53535U 22101J   24109.50648530  .00018320  00000-0  11654-2 0  9997,2 53535  53.2151 292.4740 0001324 113.0606 247.0526 15.08864465 91974,6917.806,95.436,540.587,538.755,0.0
53535.0,STARLINK-4138,PAYLOAD,2024-04-18 18:30:52,15.08870639,0.0001144,53.2155,291.2856,114.7753,245.3358,0.00080303,0.00012526,0.0,0 STARLINK-4138,1 53535U 22101J   24109.77143994  .00012526  00000-0  80303-3 0  9990,2 53535  53.2155 291.2856 0001144 114.7753 245.3358 15.08870639 92014,6917.787,95.436,540.443,538.86,0.0
53535.0,STARLINK-4138,PAYLOAD,2024-04-19 18:21:39,15.08858705,0.0001175,53.2164,286.8221,102.2335,257.8789,0.00096311,0.00015081,0.0,0 STARLINK-4138,1 53535U 22101J   24110.76503832  .00015081  00000-0  96311-3 0  9997,2 53535  53.2164 286.8221 0001175 102.2335 257.8789 15.08858705 92164,6917.823,95.436,540.501,538.875,0.0
53535.0,STARLINK-4138,PAYLOAD,2024-04-20 11:50:53,15.08845891,0.0001217,53.2166,283.5542,90.1459,269.9672,0.00080543,0.00012556,0.0,0 STARLINK-4138,1 53535U 22101J   24111.49367809  .00012556  00000-0  80543-3 0  9994,2 53535  53.2166 283.5542 0001217  90.1459 269.9672 15.08845891 92274,6917.862,95.437,540.569,538.885,0.0
53535.0,STARLINK-4138,PAYLOAD,2024-04-20 18:12:26,15.08856388,0.0001458,53.2175,282.3615,91.6357,268.4803,0.00135,0.00021272,0.0,0 STARLINK-4138,1 53535U 22101J   24111.75863679  .00021272  00000-0  13500-2 0  9992,2 53535  53.2175 282.3615 0001458  91.6357 268.4803 15.08856388 92310,6917.83,95.437,540.704,538.687,0.0
53535.0,STARLINK-4138,PAYLOAD,2024-04-21 11:41:40,15.08837481,0.0001374,53.217,279.092,106.6973,253.417,0.00048705,7.471e-05,0.0,0 STARLINK-4138,1 53535U 22101J   24112.48727919  .00007471  00000-0  48705-3 0  9990,2 53535  53.2170 279.0920 0001374 106.6973 253.4170 15.08837481 92421,6917.888,95.438,540.704,538.803,0.0
53535.0,STARLINK-4138,PAYLOAD,2024-04-21 18:03:13,15.08837905,0.000142,53.2169,277.9022,111.1334,248.981,0.00049176,7.547e-05,0.0,0 STARLINK-4138,1 53535U 22101J   24112.75224030  .00007547  00000-0  49176-3 0  9993,2 53535  53.2169 277.9022 0001420 111.1334 248.9810 15.08837905 92468,6917.887,95.438,540.734,538.769,0.0
53535.0,STARLINK-4138,PAYLOAD,2024-04-22 09:57:05,15.08833908,0.0001578,53.2179,274.9344,115.7548,244.3607,0.00022586,3.308e-05,0.0,0 STARLINK-4138,1 53535U 22101J   24113.41464476  .00003308  00000-0  22586-3 0  9994,2 53535  53.2179 274.9344 0001578 115.7548 244.3607 15.08833908 92568,6917.899,95.438,540.856,538.672,0.0
53535.0,STARLINK-4138,PAYLOAD,2024-04-22 16:18:38,15.08832257,0.0001509,53.2172,273.741,113.1192,246.9959,-1.8627e-05,-5.84e-06,0.0,0 STARLINK-4138,1 53535U 22101J   24113.67960717 -.00000584  00000-0 -18627-4 0  9998,2 53535  53.2172 273.7410 0001509 113.1192 246.9959 15.08832257 92602,6917.904,95.438,540.813,538.725,0.0
53535.0,STARLINK-4138,PAYLOAD,2024-04-23 14:34:02,15.08839019,0.000147,53.2176,269.578,117.1341,242.9801,0.00022012,3.217e-05,0.0,0 STARLINK-4138,1 53535U 22101J   24114.60696940  .00003217  00000-0  22012-3 0  9992,2 53535  53.2176 269.5780 0001470 117.1341 242.9801 15.08839019 92746,6917.883,95.438,540.765,538.731,0.0
53535.0,STARLINK-4138,PAYLOAD,2024-04-23 19:20:11,15.08858187,0.0001125,53.2161,268.6801,90.5087,269.6034,0.00058695,9.07e-05,0.0,0 STARLINK-4138,1 53535U 22101J   24114.80568437  .00009070  00000-0  58695-3 0  9992,2 53535  53.2161 268.6801 0001125  90.5087 269.6034 15.08858187 92776,6917.825,95.436,540.468,538.912,0.0
53535.0,STARLINK-4138,PAYLOAD,2024-04-24 14:24:49,15.08835897,0.0001101,53.2156,265.1168,88.5753,271.5365,0.00011011,1.465e-05,0.0,0 STARLINK-4138,1 53535U 22101J   24115.60057407  .00001465  00000-0  11011-3 0  9992,2 53535  53.2156 265.1168 0001101  88.5753 271.5365 15.08835897 92894,6917.893,95.438,540.52,538.996,0.0
53535.0,STARLINK-4138,PAYLOAD,2024-04-24 16:00:12,15.08838251,0.0001332,53.2156,264.8194,80.9991,279.1152,0.0001275,1.742e-05,0.0,0 STARLINK-4138,1 53535U 22101J   24115.66681353  .00001742  00000-0  12750-3 0  9990,2 53535  53.2156 264.8194 0001332  80.9991 279.1152 15.08838251 92902,6917.886,95.438,540.672,538.829,0.0
53535.0,STARLINK-4138,PAYLOAD,2024-04-25 14:15:36,15.08842219,0.0001382,53.2159,260.6506,81.7685,278.3463,0.00016485,2.337e-05,0.0,0 STARLINK-4138,1 53535U 22101J   24116.59417377  .00002337  00000-0  16485-3 0  9996,2 53535  53.2159 260.6506 0001382  81.7685 278.3463 15.08842219 93041,6917.874,95.437,540.695,538.783,0.0
53535.0,STARLINK-4138,PAYLOAD,2024-04-25 19:01:45,15.08850877,0.0001269,53.2166,259.7574,88.7218,271.392,0.00047605,7.299e-05,0.0,0 STARLINK-4138,1 53535U 22101J   24116.79288869  .00007299  00000-0  47605-3 0  9990,2 53535  53.2166 259.7574 0001269  88.7218 271.3920 15.08850877 93079,6917.847,95.437,540.59,538.834,0.0
53535.0,STARLINK-4138,PAYLOAD,2024-04-26 14:06:23,15.08844318,0.0001995,53.2164,256.2031,58.5776,301.5411,0.00025574,3.785e-05,0.0,0 STARLINK-4138,1 53535U 22101J   24117.58777710  .00003785  00000-0  25574-3 0  9993,2 53535  53.2164 256.2031 0001995  58.5776 301.5411 15.08844318 93194,6917.867,95.437,541.112,538.352,0.0
53535.0,STARLINK-4138,PAYLOAD,2024-04-26 15:41:46,15.08850353,0.0001251,53.215,255.9008,84.4187,275.6947,0.00036347,5.503e-05,0.0,0 STARLINK-4138,1 53535U 22101J   24117.65401054  .00005503  00000-0  36347-3 0  9996,2 53535  53.2150 255.9008 0001251  84.4187 275.6947 15.08850353 93201,6917.849,95.437,540.579,538.848,0.0
53535.0,STARLINK-4138,PAYLOAD,2024-04-27 12:21:47,15.0884359,0.0001715,53.2176,252.0311,104.0983,256.0199,9.5718e-05,1.236e-05,0.0,0 STARLINK-4138,1 53535U 22101J   24118.51513079  .00001236  00000-0  95718-4 0  9990,2 53535  53.2176 252.0311 0001715 104.0983 256.0199 15.08843590 93333,6917.869,95.437,540.921,538.548,0.0
53535.0,STARLINK-4138,PAYLOAD,2024-04-27 13:57:10,15.08842842,0.0001664,53.2175,251.7344,97.9806,262.1375,0.0001881,2.707e-05,0.0,0 STARLINK-4138,1 53535U 22101J   24118.58137156  .00002707  00000-0  18810-3 0  9996,2 53535  53.2175 251.7344 0001664  97.9806 262.1375 15.08842842 93345,6917.872,95.437,540.888,538.586,0.0
53535.0,STARLINK-4138,PAYLOAD,2024-04-27 15:32:33,15.08844183,0.0001519,53.217,251.4374,97.6598,262.4567,0.00029591,4.425e-05,0.0,0 STARLINK-4138,1 53535U 22101J   24118.64761163  .00004425  00000-0  29591-3 0  9991,2 53535  53.2170 251.4374 0001519  97.6598 262.4567 15.08844183 93351,6917.868,95.437,540.783,538.682,0.0
53535.0,STARLINK-4138,PAYLOAD,2024-04-28 12:12:35,15.08827956,0.0001424,53.2138,247.5698,92.827,267.2885,4.3036e-05,3.97e-06,0.0,0 STARLINK-4138,1 53535U 22101J   24119.50874057  .00000397  00000-0  43036-4 0  9999,2 53535  53.2138 247.5698 0001424  92.8270 267.2885 15.08827956 93488,6917.917,95.438,540.767,538.797,0.0
53535.0,STARLINK-4138,PAYLOAD,2024-04-28 13:47:58,15.0883153,0.0001533,53.2163,247.2717,93.9134,266.2033,-1.0195e-05,-4.5e-06,0.0,0 STARLINK-4138,1 53535U 22101J   24119.57497961 -.00000450  00000-0 -10195-4 0  9993,2 53535  53.2163 247.2717 0001533  93.9134 266.2033 15.08831530 93495,6917.906,95.438,540.832,538.711,0.0
53535.0,STARLINK-4138,PAYLOAD,2024-04-28 15:23:21,15.08831793,0.0001497,53.2165,246.9745,89.9382,270.1781,3.1615e-05,2.15e-06,0.0,0 STARLINK-4138,1 53535U 22101J   24119.64122036  .00000215  00000-0  31615-4 0  9996,2 53535  53.2165 246.9745 0001497  89.9382 270.1781 15.08831793 93500,6917.905,95.438,540.806,538.735,0.0
53535.0,STARLINK-4138,PAYLOAD,2024-04-29 12:03:22,15.08842098,0.0001444,53.2173,243.1131,87.6457,272.47,0.00033362,5.026e-05,0.0,0 STARLINK-4138,1 53535U 22101J   24120.50234343  .00005026  00000-0  33362-3 0  9993,2 53535  53.2173 243.1131 0001444  87.6457 272.4700 15.08842098 93637,6917.874,95.437,540.738,538.74,0.0
53535.0,STARLINK-4138,PAYLOAD,2024-04-29 15:14:08,15.08848951,0.0001423,53.2173,242.5198,89.5603,270.5552,0.00047212,7.236e-05,0.0,0 STARLINK-4138,1 53535U 22101J   24120.63482133  .00007236  00000-0  47212-3 0  9993,2 53535  53.2173 242.5198 0001423  89.5603 270.5552 15.08848951 93654,6917.853,95.437,540.702,538.734,0.0
53535.0,STARLINK-4138,PAYLOAD,2024-04-30 13:29:32,15.08844149,0.0001384,53.2166,238.3561,83.7487,276.3663,0.00018804,2.706e-05,0.0,0 STARLINK-4138,1 53535U 22101J   24121.56218086  .00002706  00000-0  18804-3 0  9992,2 53535  53.2166 238.3561 0001384  83.7487 276.3663 15.08844149 93792,6917.868,95.437,540.69,538.775,0.0
53535.0,STARLINK-4138,PAYLOAD,2024-04-30 15:04:55,15.0884771,0.0001404,53.2168,238.0598,89.9117,270.2036,0.0002401,3.536e-05,0.0,0 STARLINK-4138,1 53535U 22101J   24121.62841908  .00003536  00000-0  24010-3 0  9992,2 53535  53.2168 238.0598 0001404  89.9117 270.2036 15.08847710 93808,6917.857,95.437,540.693,538.751,0.0
53535.0,STARLINK-4138,PAYLOAD,2024-05-01 00:37:14,15.08846579,0.0001357,53.2161,236.2767,98.8644,261.2502,0.00013718,1.896e-05,0.0,0 STARLINK-4138,1 53535U 22101J   24122.02585745  .00001896  00000-0  13718-3 0  9991,2 53535  53.2161 236.2767 0001357  98.8644 261.2502 15.08846579 93866,6917.86,95.437,540.664,538.787,0.0
